IRIDIUM 33 DEB          
1 35488U 97051QJ  26116.33137335  .00012889  00000+0  14547-2 0  9994
2 35488  86.3243 238.6356 0023078 281.1988  78.6642 14.86268526902637
IRIDIUM 33 DEB          
1 35616U 97051QN  26111.18734097  .00010829  00000+0  12410-2 0  9992
2 35616  86.3497 286.4680 0010646  87.8457 272.3986 14.85791192894948
IRIDIUM 33 DEB          
1 35618U 97051QQ  26114.22865173  .00001209  00000+0  28755-3 0  9994
2 35618  86.3344 295.5416 0026280 294.7776  65.0696 14.52870281673179
IRIDIUM 33 DEB          
1 35620U 97051QS  26116.57044228  .00007189  00000+0  19793-2 0  9991
2 35620  86.3910 160.4562 0137147 172.3247 188.0099 14.41340277619068
IRIDIUM 33 DEB          
1 35622U 97051QU  26115.99004431  .00056408  00000+0  27143-2 0  9996
2 35622  86.1914 196.5944 0010150 137.6963  35.1119 15.18498440893889
IRIDIUM 33 DEB          
1 35628U 97051RA  26116.26334082  .00007196  00000+0  12002-2 0  9999
2 35628  86.3537 308.9727 0009743 219.0914 140.9598 14.69830140884218
IRIDIUM 33 DEB          
1 35631U 97051RD  26115.03894211  .00000645  00000+0  16884-3 0  9997
2 35631  86.3654 323.5859 0018370  42.0713 111.5742 14.47725470891250
IRIDIUM 33 DEB          
1 35680U 97051RJ  26115.33377598  .00003951  00000+0  15712-2 0  9999
2 35680  86.1034 322.2937 0146293 213.4714 324.9896 14.22804913625997
IRIDIUM 33 DEB          
1 35744U 97051RX  26115.37399473  .00006786  00000+0  10492-2 0  9999
2 35744  86.3250 264.9309 0022499  98.3382 262.0387 14.72983500892973
IRIDIUM 33 DEB          
1 35797U 97051SF  26116.68518625  .00017391  00000+0  19354-2 0  9994
2 35797  86.3330 267.7268 0011687  53.9274 306.3032 14.86985931893435
IRIDIUM 33 DEB          
1 35806U 97051SQ  26110.32766267  .00002653  00000+0  56203-3 0  9997
2 35806  86.3423 323.9574 0013791   4.5460 355.5872 14.58851578881984
IRIDIUM 33 DEB          
1 35809U 97051ST  26116.17106936  .00012665  00000+0  17138-2 0  9997
2 35809  86.3235 273.9462 0013520 136.2105 224.0190 14.78846979887921
IRIDIUM 33 DEB          
1 35846U 97051SW  26116.11460515  .00001437  00000+0  41612-3 0  9998
2 35846  86.3787   1.4819 0020126  89.3127 271.0380 14.43726660732676
IRIDIUM 33 DEB          
1 35848U 97051SY  26115.82701074  .00010037  00000+0  12548-2 0  9996
2 35848  86.3871 315.6489 0009897  95.4967 264.7385 14.82196896686742
IRIDIUM 33 DEB          
1 35850U 97051TA  26114.19870447  .00008658  00000+0  10800-2 0  9994
2 35850  86.3443 283.7962 0011168  99.1870 261.0617 14.82268518733178
IRIDIUM 33 DEB          
1 35915U 97051TY  26112.73377580  .00008497  00000+0  99924-3 0  9990
2 35915  86.3392 282.8815 0012506 101.5638 258.6990 14.84694584100270
IRIDIUM 33 DEB          
1 35918U 97051UB  26113.02063000  .00002406  00000+0  58233-3 0  9997
2 35918  86.4045  19.4046 0028511  89.8196 284.6167 14.52423262871121
IRIDIUM 33 DEB          
1 35929U 97051UN  26113.09188747  .00030442  00000+0  16954-2 0  9996
2 35929  86.3437 249.8913 0013556 253.0784 106.8970 15.13410606897592
IRIDIUM 33 DEB          
1 36011U 97051US  26114.38430878  .00000913  00000+0  27295-3 0  9998
2 36011  86.3414 338.4586 0019743 139.0347 343.6681 14.41796545664516
IRIDIUM 33 DEB          
1 36012U 97051UT  26116.64892441  .00005378  00000+0  19370-2 0  9992
2 36012  86.4381 253.0212 0219783 191.3095 168.3113 14.20977853673990
IRIDIUM 33 DEB          
1 36028U 97051VK  26116.60689868  .00032090  00000+0  23831-2 0  9990
2 36028  86.3174 242.8537 0014062 270.7826  89.1796 15.02812236891453
IRIDIUM 33 DEB          
1 36080U 97051VM  26111.82142268  .00001132  00000+0  30381-3 0  9997
2 36080  86.3162 311.3028 0019377  90.4579 269.8844 14.47196504492955
IRIDIUM 33 DEB          
1 36083U 97051VQ  26115.37065032  .00001313  00000+0  37860-3 0  9997
2 36083  86.3443 336.6253 0027447 140.5610 219.7596 14.43763083873779
IRIDIUM 33 DEB          
1 36390U 97051VU  26107.63836251  .00004176  00000+0  60593-3 0  9996
2 36390  86.2949 241.5792 0030094  93.5912 266.8750 14.75483411681171
IRIDIUM 33 DEB          
1 36483U 97051VZ  26103.96176541  .00000905  00000+0  24684-3 0  9997
2 36483  86.3839   0.1649 0011408  83.0785 277.1715 14.46316988669122
IRIDIUM 33 DEB          
1 36490U 97051WG  26115.81865738  .00009685  00000+0  12842-2 0  9991
2 36490  86.3612 309.8051 0001914   1.7916 358.3311 14.79763901884657
IRIDIUM 33 DEB          
1 36493U 97051WK  26116.77517925  .00006732  00000+0  11908-2 0  9994
2 36493  86.3543 311.5941 0008240 241.7545 118.2838 14.67238486764975
IRIDIUM 33 DEB          
1 36497U 97051WP  26115.47110710  .00005733  00000+0  10368-2 0  9994
2 36497  86.1575 191.4063 0045524  28.0149 332.3499 14.65551792676097
IRIDIUM 33 DEB          
1 37548U 97051XH  26114.35938007  .00001903  00000+0  46025-3 0  9990
2 37548  86.3532 345.6205 0026470 105.7034 254.7095 14.52391145674565
IRIDIUM 33 DEB          
1 37550U 97051XK  26116.33853251  .00006792  00000+0  11442-2 0  9995
2 37550  86.3759 324.1261 0004395  44.9557 315.2013 14.69412166883086
IRIDIUM 33 DEB          
1 37562U 97051XX  26116.39028997  .00004232  00000+0  91443-3 0  9992
2 37562  86.3767 344.8360 0024933  16.4941 108.5777 14.57932151882894
IRIDIUM 33 DEB          
1 37565U 97051YA  26099.33400274  .00001712  00000+0  41706-3 0  9998
2 37565  86.3473 318.3481 0014606  52.1997 308.0529 14.52140920675437
IRIDIUM 33 DEB          
1 38017U 97051YD  26114.95771152  .00005664  00000+0  13172-2 0  9998
2 38017  86.3373 108.0925 0087010  24.4788 336.0510 14.52435147633348
IRIDIUM 33 DEB          
1 38022U 97051YJ  26111.83157768  .00002085  00000+0  61839-3 0  9997
2 38022  86.2662 319.4368 0043819 341.5723  18.3887 14.42362653710684
IRIDIUM 33 DEB          
1 38028U 97051YQ  26116.79024152  .00000772  00000+0  20728-3 0  9996
2 38028  86.3211 301.5532 0029098  37.8243 322.4997 14.46619979674478
IRIDIUM 33 DEB          
1 38228U 97051ZC  26115.41119253  .00000525  00000+0  20078-3 0  9997
2 38228  86.2970 351.6484 0065522 119.2958  60.0617 14.27525729866883
IRIDIUM 33 DEB          
1 38241U 97051ZR  26115.23106215  .00002696  00000+0  61126-3 0  9996
2 38241  86.3177 291.6624 0002781  11.0460 349.0809 14.55789284621423
IRIDIUM 33 DEB          
1 38474U 97051AAB 26116.29122099  .00001571  00000+0  38760-3 0  9998
2 38474  86.3404 311.4127 0025242   2.0746 358.0560 14.51375977672692
IRIDIUM 33 DEB          
1 39777U 97051AAJ 26116.43569656  .00017176  00000+0  34738-2 0  9993
2 39777  85.9572 109.4709 0061566  91.4301 269.3962 14.60035865621489
IRIDIUM 33 DEB          
1 39778U 97051AAK 26116.37357622  .00003538  00000+0  80931-3 0  9999
2 39778  86.3798 344.7435 0005322 306.7798  53.2920 14.55450229626506
IRIDIUM 33 DEB          
1 39781U 97051AAN 26115.48471362  .00013815  00000+0  51087-2 0  9990
2 39781  86.3746 202.7651 0175799 202.3236 172.8803 14.24075367100080
IRIDIUM 33 DEB          
1 40996U 97051ABJ 26116.27865949  .00052923  00000+0  33976-2 0  9996
2 40996  86.3434 297.9132 0004360 263.8856 218.5131 15.08227115645088
IRIDIUM 33 DEB          
1 40998U 97051ABL 26116.44826685  .00001309  00000+0  36483-3 0  9990
2 40998  86.3862 356.1038 0008139   9.5913 110.2584 14.45620718 86271
IRIDIUM 33 DEB          
1 46435U 97051ABN 26115.81082395  .00008173  00000+0  21222-2 0  9994
2 46435  86.2788 135.8997 0197762 193.5928 345.1445 14.38526762 98405
IRIDIUM 33 DEB          
1 46734U 97051ABR 26109.30446626  .00001915  00000+0  56413-3 0  9992
2 46734  86.2589 306.8288 0037670 271.8827 269.0255 14.42791376648491
IRIDIUM 33 DEB          
1 46965U 97051ABX 26116.22675881  .00003724  00000+0  74820-3 0  9996
2 46965  86.3315 280.9928 0017684 223.5525 315.9887 14.61326920642317
IRIDIUM 33 DEB          
1 46971U 97051ACD 26116.16693559  .00047558  00000+0  31213-2 0  9999
2 46971  86.3145 269.2889 0007067 181.1926 306.0754 15.07424987662497
IRIDIUM 33 DEB          
1 46972U 97051ACE 26101.43150669  .00001303  00000+0  32218-3 0  9999
2 46972  86.3910 347.8745 0011865  68.0639  58.2244 14.51299210633087
IRIDIUM 33 DEB          
1 46974U 97051ACG 26116.51744192  .00012694  00000+0  32726-2 0  9994
2 46974  86.2986  46.2556 0092072  97.0452 264.1233 14.47424263594563
